From:	Horizons Ephemeris System <horizons@ssd.jpl.nasa.gov>
Sent:	Friday, December 4, 2020 11:17 AM
Subject:	[Horizons] MAJOR BODY #C(usr={90.,10.,.600^G}@301)_T(301) (1/1)

 Automated mail xmit by MAIL_REQUEST, PID= 16536 Fri Dec  4 09:17:09 2020
++++++++++++++++++++++++++++++++ (part 1 of 1)  +++++++++++++++++++++++++++++++
*******************************************************************************
 Revised: July 31, 2013             Moon / (Earth)                          301
 
 GEOPHYSICAL DATA (updated 2018-Aug-15):
  Vol. mean radius, km  = 1737.53+-0.03    Mass, x10^22 kg       =    7.349
  Radius (gravity), km  = 1738.0           Surface emissivity    =    0.92
  Radius (IAU), km      = 1737.4           GM, km^3/s^2          = 4902.800066
  Density, g/cm^3       =    3.3437        GM 1-sigma, km^3/s^2  =  +-0.0001  
  V(1,0)                =   +0.21          Surface accel., m/s^2 =    1.62
  Earth/Moon mass ratio = 81.3005690769    Farside crust. thick. = ~80 - 90 km
  Mean crustal density  = 2.97+-.07 g/cm^3 Nearside crust. thick.= 58+-8 km 
  Heat flow, Apollo 15  = 3.1+-.6 mW/m^2   Mean angular diameter = 31'05.2"
  Heat flow, Apollo 17  = 2.2+-.5 mW/m^2   Sid. rot. rate, rad/s = 0.0000026617
  Geometric Albedo      = 0.12             Mean solar day        = 29.5306 d
  Obliquity to orbit    = 6.67 deg         Orbit period          = 27.321582 d
  Semi-major axis, a    = 384400 km        Eccentricity          = 0.05490
  Mean motion, rad/s    = 2.6616995x10^-6  Inclination           = 5.145 deg
  Apsidal period        = 3231.50 d        Nodal period          = 6798.38 d
                                 Perihelion  Aphelion    Mean
  Solar Constant (W/m^2)         1414+-7     1323+-7     1368+-7
  Maximum Planetary IR (W/m^2)   1314        1226        1268
  Minimum Planetary IR (W/m^2)      5.2         5.2         5.2
********************************************************************************
 
 
*******************************************************************************
Ephemeris / MAIL_REQUEST Fri Dec  4 09:17:08 2020 Pasadena, USA  / Horizons
*******************************************************************************
Target body name: Moon (301)                      {source: DE431mx}
Center body name: Moon (301)                      {source: DE431mx}
Center-site name: (user defined site below)
*******************************************************************************
Start time      : A.D. 2020-Jan-01 00:00:00.0000 TDB
Stop  time      : A.D. 2039-Jan-01 00:00:00.0000 TDB
Step-size       : 10000 steps
*******************************************************************************
Center geodetic : 90.0000000,10.0000000,0.6000000 {E-lon(deg),Lat(deg),Alt(km)}
Center cylindric: 90.0000000,1711.59587,301.80053 {E-lon(deg),Dxy(km),Dz(km)}
Center pole/equ : IAU_MOON                        {East-longitude positive}
Center radii    : 1737.4 x 1737.4 x 1737.4 km     {Equator, meridian, pole}    
Output units    : KM-S
Output type     : GEOMETRIC cartesian states
Output format   : 3 (position, velocity, LT, range, range-rate)
Reference frame : Ecliptic of J2000.0
*******************************************************************************
JDTDB
   X     Y     Z
   VX    VY    VZ
   LT    RG    RR
*******************************************************************************
$$SOE
2460848.220000001 = A.D. 2025-Jun-21 17:16:48.0001 TDB 
  -1.121336918342620E+03  1.285776430597613E+03 -3.317024059025473E+02
  -3.444440712745129E-03 -2.980011759088387E-03  9.270252779817242E-05
   5.797343974543886E-03  1.738000000000001E+03  2.954419728936333E-19
2460848.914000001 = A.D. 2025-Jun-22 09:56:09.6001 TDB 
  -1.312761178458763E+03  1.091407815631546E+03 -3.257776362949760E+02
  -2.926899831098200E-03 -3.489327048706057E-03  1.044935423991367E-04
   5.797343974543886E-03  1.738000000000001E+03 -9.981147732893017E-20
2460849.608000001 = A.D. 2025-Jun-23 02:35:31.2001 TDB 
  -1.470852341899527E+03  8.690989319846955E+02 -3.192247401937102E+02
  -2.334985936851283E-03 -3.909972493941238E-03  1.136084093115611E-04
   5.797343974543886E-03  1.738000000000001E+03  1.397360682605022E-19
2460850.302000001 = A.D. 2025-Jun-23 19:14:52.8001 TDB 
  -1.591593223448250E+03  6.244989474308766E+02 -3.122115880798404E+02
  -1.683737390899039E-03 -4.231261398049801E-03  1.198121192887377E-04
   5.797343974543884E-03  1.738000000000000E+03  5.150272230172798E-19
2460850.996000001 = A.D. 2025-Jun-24 11:54:14.4001 TDB 
  -1.671915550302692E+03  3.638233747086940E+02 -3.049179310431348E+02
  -9.896994089222092E-04 -4.445030235721461E-03  1.229443304033087E-04
   5.797343974543885E-03  1.738000000000000E+03  2.235777092168036E-19
2460851.690000001 = A.D. 2025-Jun-25 04:33:36.0001 TDB 
  -1.709777895519218E+03  9.369623413097426E+01 -2.975307777416486E+02
  -2.705042996067811E-04 -4.545845788729374E-03  1.229238905772927E-04
   5.797343974543885E-03  1.738000000000000E+03  6.787180458367252E-20
2460852.384000001 = A.D. 2025-Jun-25 21:12:57.6001 TDB 
  -1.704217561311528E+03 -1.790181535563204E+02 -2.902395638342161E+02
   4.555758385261751E-04 -4.531143163283049E-03  1.197512069188340E-04
   5.797343974543884E-03  1.738000000000000E+03  1.077963955152446E-19
2460853.078000001 = A.D. 2025-Jun-26 13:52:19.2001 TDB 
  -1.655375095834924E+03 -4.473894863833859E+02 -2.832312475048057E+02
   1.170092695041936E-03 -4.401291206608767E-03  1.135083273503406E-04
   5.797343974543886E-03  1.738000000000001E+03 -1.357436091673450E-19
2460853.772000001 = A.D. 2025-Jun-27 06:31:40.8001 TDB 
  -1.564490816291214E+03 -7.045974997028621E+02 -2.766854697177411E+02
   1.854889924591337E-03 -4.159583644860568E-03  1.043567041987456E-04
   5.797343974543885E-03  1.738000000000000E+03 -1.976267251112818E-19
2460854.466000001 = A.D. 2025-Jun-27 23:11:02.4001 TDB 
  -1.433873416540510E+03 -9.441052260049469E+02 -2.707699162916657E+02
   2.492564119310026E-03 -3.812156111360070E-03  9.253272196381988E-05
   5.797343974543885E-03  1.738000000000000E+03  5.130309934707012E-19
2460855.160000001 = A.D. 2025-Jun-28 15:50:24.0001 TDB 
  -1.266841441896376E+03 -1.159825103586758E+03 -2.656360107061491E+02
   3.066906929869645E-03 -3.367831083270034E-03  7.834117732381731E-05
   5.797343974543885E-03  1.738000000000000E+03 -9.861373960098303E-19
2460855.854000001 = A.D. 2025-Jun-29 08:29:45.6001 TDB 
  -1.067639100317355E+03 -1.346273717247253E+03 -2.614150525941749E+02
   3.563317129973044E-03 -2.837894555222251E-03  6.214698451271041E-05
   5.797343974543886E-03  1.738000000000001E+03 -3.034268910799477E-19
2460856.548000001 = A.D. 2025-Jun-30 01:09:07.2001 TDB 
  -8.413285308366711E+02 -1.498711236126177E+03 -2.582148986974962E+02
   3.969172139787080E-03 -2.235810008066007E-03  4.436543353910987E-05
   5.797343974543885E-03  1.738000000000000E+03  3.852723024896705E-19
2460857.242000001 = A.D. 2025-Jun-30 17:48:28.8001 TDB 
  -5.936612504514067E+02 -1.613261995919743E+03 -2.561172626620894E+02
   4.274149512018383E-03 -1.576876837160345E-03  2.545134852705391E-05
   5.797343974543886E-03  1.738000000000001E+03 -4.761007468589968E-19
2460857.936000001 = A.D. 2025-Jul-01 10:27:50.4001 TDB 
  -3.309320341316886E+02 -1.687013146452887E+03 -2.551756894388549E+02
   4.470490122044635E-03 -8.778418443058674E-04  5.887481679383601E-06
   5.797343974543885E-03  1.738000000000001E+03 -9.382278868919436E-20
2460858.630000001 = A.D. 2025-Jul-02 03:07:12.0001 TDB 
  -5.981893509580058E+01 -1.718088839540654E+03 -2.554142408908610E+02
   4.553196264028432E-03 -1.564736297850621E-04 -1.382755623926319E-05
   5.797343974543885E-03  1.738000000000001E+03 -3.992459093157207E-21
2460859.324000001 = A.D. 2025-Jul-02 19:46:33.6001 TDB 
   2.127864884864713E+02 -1.705698052802805E+03 -2.568269124961731E+02
   4.520159504681540E-03  5.688892919895163E-04 -3.319157297068410E-05
   5.797343974543885E-03  1.738000000000000E+03  4.790950911788649E-20
2460860.018000001 = A.D. 2025-Jul-03 12:25:55.2001 TDB 
   4.799544188129369E+02 -1.650154816820954E+03 -2.593777869913683E+02
   4.372214943572492E-03  1.279805120292346E-03 -5.171106527873030E-05
   5.797343974543885E-03  1.738000000000001E+03  2.724853331079794E-19
2460860.712000001 = A.D. 2025-Jul-04 05:05:16.8001 TDB 
   7.348930297196782E+02 -1.552870318327095E+03 -2.630019188677904E+02
   4.113120425580118E-03  1.958198198702077E-03 -6.891329571890106E-05
   5.797343974543885E-03  1.738000000000001E+03 -1.996229546578603E-20
2460861.406000001 = A.D. 2025-Jul-04 21:44:38.4001 TDB 
   9.711212488564370E+02 -1.416317072413265E+03 -2.676069326647490E+02
   3.749461194552049E-03  2.586819217883997E-03 -8.435799296717178E-05
   5.797343974543885E-03  1.738000000000001E+03  2.215814796702250E-19
2460862.100000001 = A.D. 2025-Jul-05 14:24:00.0001 TDB 
   1.182633623216455E+03 -1.243966072758249E+03 -2.730753065810619E+02
   3.290482411606107E-03  3.149684391922137E-03 -9.764847365161173E-05
   5.797343974543886E-03  1.738000000000000E+03 -2.056116432975962E-19
2460862.794000001 = A.D. 2025-Jul-06 07:03:21.6001 TDB 
   1.364053082247733E+03 -1.040198521486855E+03 -2.792672997452859E+02
   2.747853831129011E-03  3.632482357233505E-03 -1.084419458748981E-04
   5.797343974543885E-03  1.738000000000000E+03 -2.994344319867906E-20
2460863.488000001 = A.D. 2025-Jul-06 23:42:43.2001 TDB 
   1.510767703490402E+03 -8.101943909148638E+02 -2.860244657724789E+02
   2.135372678554664E-03  4.022938389360571E-03 -1.164587102361059E-04
   5.797343974543886E-03  1.738000000000001E+03  6.467783730914675E-19
2460864.182000001 = A.D. 2025-Jul-07 16:22:04.8001 TDB 
   1.619047996462099E+03 -5.598006611619802E+02 -2.931736770494144E+02
   1.468612358547061E-03  4.311126649625175E-03 -1.214899389555574E-04
   5.797343974543886E-03  1.738000000000000E+03  7.585672276998695E-20
